idElset,classificationMarking,satNo,epoch,meanMotion,idOnOrbit,uct,eccentricity,inclination,raan,argOfPerigee,meanAnomaly,bStar,meanMotionDot,meanMotionDDot,semiMajorAxis,period,apogee,perigee,origObjectId,line1,line2,createdAt,createdBy,source,dataMode,ephemType,origNetwork,elset
d4ece61a-ea2b-48a2-afc6-8df22a614dfd,U//PR-EXO-ELSETS,29162,2025-08-09T19:21:59.615199Z,0.989345912884014,29162,False,0.0003855676297469754,1.565307827010712,86.2424537249796,48.7411923388506,114.7966899368496,0.0,0.0,0.0,42543.81385617932,1455.50709943532,42560.21737364824,42527.4103387104,29162,1 29162U 06020A   25221.80693999 +.00000000 +00000+0 +00000+0 2 99992,2 29162   1.5653  86.2425 0003855  48.7412 114.7967  0.98934591000009,2025-08-09T20:06:32.180Z,system.exo,EXO,REAL,2,OPS1,"{'NORAD_ID': 29162, 'classification': 'U', 'COSPAR_ID': '06020A', 'BC': 0.0, 'n_ddot': 0.0, 'B_star': 0.0, 'ephemeris_type': 2, 'elset_num': 9999, 'inclination': 1.5653, 'RAAN': 86.2425, 'eccentricity': 0.0003855, 'perigee': 48.7412, 'mean_anomaly': 114.7967, 'mean_motion': 0.98934591, 'rev_num': 0, 'line1': '1 29162U 06020A   25221.80693999 +.00000000 +00000+0 +00000+0 2 99992', 'line2': '2 29162   1.5653  86.2425 0003855  48.7412 114.7967  0.98934591000009', 'epoch': datetime.datetime(2025, 8, 9, 19, 21, 59, 615136)}"
b249ea9a-27c9-40f5-962f-b801961fe945,U//PR-EXO-ELSETS,25546,2025-08-09T20:20:08.611120Z,0.990366820651979,25546,False,0.0003083983763790504,10.23000115324446,49.15507068641057,45.51709209329193,173.7239668358906,0.0,0.0,0.0,42514.57164364591,1454.00670738547,42527.68306851326,42501.46021877856,25546,1 25546U 98068A   25221.84732189 +.00000000 +00000+0 +00000+0 2 99996,2 25546  10.2300  49.1551 0003083  45.5171 173.7240  0.99036682000009,2025-08-10T00:57:29.799Z,system.exo,EXO,REAL,2,OPS1,"{'NORAD_ID': 25546, 'classification': 'U', 'COSPAR_ID': '98068A', 'BC': 0.0, 'n_ddot': 0.0, 'B_star': 0.0, 'ephemeris_type': 2, 'elset_num': 9999, 'inclination': 10.23, 'RAAN': 49.1551, 'eccentricity': 0.0003083, 'perigee': 45.5171, 'mean_anomaly': 173.724, 'mean_motion': 0.99036682, 'rev_num': 0, 'line1': '1 25546U 98068A   25221.84732189 +.00000000 +00000+0 +00000+0 2 99996', 'line2': '2 25546  10.2300  49.1551 0003083  45.5171 173.7240  0.99036682000009', 'epoch': datetime.datetime(2025, 8, 9, 20, 20, 8, 611296)}"
f7ddf628-d64b-4da6-b254-8ba6e51f9644,U//PR-EXO-ELSETS,38652,2025-08-09T03:42:05.995030Z,1.002681173207012,38652,False,0.0002125683070184497,0.05169241923995298,298.9300750945923,189.3948281839418,250.0746094413119,0.0,0.0,0.0,42165.76222839977,1436.149434614645,42174.72533309081,42156.79912370873,38652,1 38652U 12036A   25221.15423605 +.00000000 +00000+0 +00000+0 2 99993,2 38652   0.0517 298.9301 0002125 189.3948 250.0746  1.00268117000003,2025-08-09T04:51:31.223Z,system.exo,EXO,REAL,2,OPS1,"{'NORAD_ID': 38652, 'classification': 'U', 'COSPAR_ID': '12036A', 'BC': 0.0, 'n_ddot': 0.0, 'B_star': 0.0, 'ephemeris_type': 2, 'elset_num': 9999, 'inclination': 0.0517, 'RAAN': 298.9301, 'eccentricity': 0.0002125, 'perigee': 189.3948, 'mean_anomaly': 250.0746, 'mean_motion': 1.00268117, 'rev_num': 0, 'line1': '1 38652U 12036A   25221.15423605 +.00000000 +00000+0 +00000+0 2 99993', 'line2': '2 38652   0.0517 298.9301 0002125 189.3948 250.0746  1.00268117000003', 'epoch': datetime.datetime(2025, 8, 9, 3, 42, 5, 994720)}"
4a364215-6849-47d9-8892-1691e0e3e7b2,U//PR-EXO-ELSETS,21821,2025-08-09T19:10:08.874656Z,1.00197029680329,21821,False,0.0007160077346138961,13.59424270430006,343.3019932309277,175.1810121926931,137.7353532557019,0.0,0.0,0.0,42185.70367259322,1437.168351790677,42215.90896271293,42155.49838247351,21821,1 21821U 91087A   25221.79871383 +.00000000 +00000+0 +00000+0 2 99996,2 21821  13.5942 343.3020 0007160 175.1810 137.7354  1.00197029000001,2025-08-09T19:36:31.558Z,system.exo,EXO,REAL,2,OPS1,"{'NORAD_ID': 21821, 'classification': 'U', 'COSPAR_ID': '91087A', 'BC': 0.0, 'n_ddot': 0.0, 'B_star': 0.0, 'ephemeris_type': 2, 'elset_num': 9999, 'inclination': 13.5942, 'RAAN': 343.302, 'eccentricity': 0.000716, 'perigee': 175.181, 'mean_anomaly': 137.7354, 'mean_motion': 1.00197029, 'rev_num': 0, 'line1': '1 21821U 91087A   25221.79871383 +.00000000 +00000+0 +00000+0 2 99996', 'line2': '2 21821  13.5942 343.3020 0007160 175.1810 137.7354  1.00197029000001', 'epoch': datetime.datetime(2025, 8, 9, 19, 10, 8, 874912)}"
f7b01a53-86ef-4e60-bf87-5dc2504c1164,U//PR-EXO-ELSETS,38552,2025-08-09T04:40:26.498593Z,1.00263903637755,38552,False,7.351182719146949e-05,3.927114395689472,62.00008239824646,21.30054198255124,304.9937522922195,0.0,0.0,0.0,42166.94359013491,1436.209790118085,42170.04335920531,42163.84382106452,38552,1 38552U 12035B   25221.19475114 +.00000000 +00000+0 +00000+0 2 99997,2 38552   3.9271  62.0001 0000735  21.3005 304.9938  1.00263903000002,2025-08-09T05:42:31.563Z,system.exo,EXO,REAL,2,OPS1,"{'NORAD_ID': 38552, 'classification': 'U', 'COSPAR_ID': '12035B', 'BC': 0.0, 'n_ddot': 0.0, 'B_star': 0.0, 'ephemeris_type': 2, 'elset_num': 9999, 'inclination': 3.9271, 'RAAN': 62.0001, 'eccentricity': 7.35e-05, 'perigee': 21.3005, 'mean_anomaly': 304.9938, 'mean_motion': 1.00263903, 'rev_num': 0, 'line1': '1 38552U 12035B   25221.19475114 +.00000000 +00000+0 +00000+0 2 99997', 'line2': '2 38552   3.9271  62.0001 0000735  21.3005 304.9938  1.00263903000002', 'epoch': datetime.datetime(2025, 8, 9, 4, 40, 26, 498496)}"
da9220cb-500e-4bea-a0d6-bbbf329a8c00,U//PR-EXO-ELSETS,11561,2025-08-09T17:37:32.613987Z,1.003013701390342,11561,False,0.001301161868879036,6.370043058572856,287.9979469927562,201.267719361298,151.9055631656859,0.0,0.0,0.0,42156.44226321074,1435.673309351531,42211.29461841122,42101.58990801025,11561,1 11561U 79087A   25221.73440525 +.00000000 +00000+0 +00000+0 2 99996,2 11561   6.3700 287.9979 0013011 201.2677 151.9056  1.00301370000006,2025-08-09T18:15:29.879Z,system.exo,EXO,REAL,2,OPS1,"{'NORAD_ID': 11561, 'classification': 'U', 'COSPAR_ID': '79087A', 'BC': 0.0, 'n_ddot': 0.0, 'B_star': 0.0, 'ephemeris_type': 2, 'elset_num': 9999, 'inclination': 6.37, 'RAAN': 287.9979, 'eccentricity': 0.0013011, 'perigee': 201.2677, 'mean_anomaly': 151.9056, 'mean_motion': 1.0030137, 'rev_num': 0, 'line1': '1 11561U 79087A   25221.73440525 +.00000000 +00000+0 +00000+0 2 99996', 'line2': '2 11561   6.3700 287.9979 0013011 201.2677 151.9056  1.00301370000006', 'epoch': datetime.datetime(2025, 8, 9, 17, 37, 32, 613600)}"
2af15cec-d684-4c11-89ac-3718b184c819,U//PR-EXO-ELSETS,40732,2025-08-09T20:40:56.706060Z,1.002753260174604,40732,False,0.0001226825076560263,2.41798447541428,72.35446860925818,117.7079606866655,88.32277349466055,0.0,0.0,0.0,42163.7413667873,1436.046191212842,42168.91412031034,42158.56861326427,40732,1 40732U 15034A   25221.86176743 +.00000000 +00000+0 +00000+0 2 99992,2 40732   2.4180  72.3545 0001226 117.7080  88.3228  1.00275326000001,2025-08-09T21:27:31.552Z,system.exo,EXO,REAL,2,OPS1,"{'NORAD_ID': 40732, 'classification': 'U', 'COSPAR_ID': '15034A', 'BC': 0.0, 'n_ddot': 0.0, 'B_star': 0.0, 'ephemeris_type': 2, 'elset_num': 9999, 'inclination': 2.418, 'RAAN': 72.3545, 'eccentricity': 0.0001226, 'perigee': 117.708, 'mean_anomaly': 88.3228, 'mean_motion': 1.00275326, 'rev_num': 0, 'line1': '1 40732U 15034A   25221.86176743 +.00000000 +00000+0 +00000+0 2 99992', 'line2': '2 40732   2.4180  72.3545 0001226 117.7080  88.3228  1.00275326000001', 'epoch': datetime.datetime(2025, 8, 9, 20, 40, 56, 705952)}"
ee5c1bf0-c6cf-4aef-b786-6dcf5f2fc091,U//PR-EXO-ELSETS,27499,2025-08-09T20:09:09.137892Z,0.993214008431296,27499,False,0.0001466896790973081,7.798634509070633,66.04797624699127,99.18729523364624,108.4955765531724,0.0,0.0,0.0,42433.28343879814,1449.838592464445,42439.50796352883,42427.05891406746,27499,1 27499U 02038A   25221.83968910 +.00000000 +00000+0 +00000+0 2 99999,2 27499   7.7986  66.0480 0001466  99.1873 108.4956  0.99321400000009,2025-08-09T22:03:30.533Z,system.exo,EXO,REAL,2,OPS1,"{'NORAD_ID': 27499, 'classification': 'U', 'COSPAR_ID': '02038A', 'BC': 0.0, 'n_ddot': 0.0, 'B_star': 0.0, 'ephemeris_type': 2, 'elset_num': 9999, 'inclination': 7.7986, 'RAAN': 66.048, 'eccentricity': 0.0001466, 'perigee': 99.1873, 'mean_anomaly': 108.4956, 'mean_motion': 0.993214, 'rev_num': 0, 'line1': '1 27499U 02038A   25221.83968910 +.00000000 +00000+0 +00000+0 2 99999', 'line2': '2 27499   7.7986  66.0480 0001466  99.1873 108.4956  0.99321400000009', 'epoch': datetime.datetime(2025, 8, 9, 20, 9, 9, 138240)}"
c4b3ed04-4fe2-47c0-a4af-7edc592eac5e,U//PR-EXO-ELSETS,23686,2025-08-09T17:38:51.574492Z,0.9878942304967786,23686,False,0.0006259065724061211,10.91754308351793,42.94301539540727,30.40777748985883,173.3048061377192,0.0,0.0,0.0,42585.48160254288,1457.645925592533,42612.13613536699,42558.82706971877,23686,1 23686U 95055A   25221.73531915 +.00000000 +00000+0 +00000+0 2 99994,2 23686  10.9175  42.9430 0006259  30.4078 173.3048  0.98789423000002,2025-08-09T18:30:31.839Z,system.exo,EXO,REAL,2,OPS1,"{'NORAD_ID': 23686, 'classification': 'U', 'COSPAR_ID': '95055A', 'BC': 0.0, 'n_ddot': 0.0, 'B_star': 0.0, 'ephemeris_type': 2, 'elset_num': 9999, 'inclination': 10.9175, 'RAAN': 42.943, 'eccentricity': 0.0006259, 'perigee': 30.4078, 'mean_anomaly': 173.3048, 'mean_motion': 0.98789423, 'rev_num': 0, 'line1': '1 23686U 95055A   25221.73531915 +.00000000 +00000+0 +00000+0 2 99994', 'line2': '2 23686  10.9175  42.9430 0006259  30.4078 173.3048  0.98789423000002', 'epoch': datetime.datetime(2025, 8, 9, 17, 38, 51, 574560)}"
